[{"OBJECT_NAME":"STARLINK-35230","OBJECT_ID":"2025-212F","EPOCH":"2026-03-09T22:51:14.696352","MEAN_MOTION":15.30217637,"ECCENTRICITY":8.953e-5,"INCLINATION":53.1624,"RA_OF_ASC_NODE":344.4629,"ARG_OF_PERICENTER":105.8434,"MEAN_ANOMALY":254.2666,"EPHEMERIS_TYPE":0,"CLASSIFICATION_TYPE":"U","NORAD_CAT_ID":65681,"ELEMENT_SET_NO":999,"REV_AT_EPOCH":2729,"BSTAR":0.0014033284,"MEAN_MOTION_DOT":0.00041458,"MEAN_MOTION_DDOT":0},{"OBJECT_NAME":"CZ-6A DEB","OBJECT_ID":"2022-151QB","EPOCH":"2026-03-08T18:03:47.471328","MEAN_MOTION":15.32168285,"ECCENTRICITY":0.00205863,"INCLINATION":98.6246,"RA_OF_ASC_NODE":151.4486,"ARG_OF_PERICENTER":181.9757,"MEAN_ANOMALY":178.1404,"EPHEMERIS_TYPE":0,"CLASSIFICATION_TYPE":"U","NORAD_CAT_ID":54890,"ELEMENT_SET_NO":999,"REV_AT_EPOCH":17659,"BSTAR":0.012866954,"MEAN_MOTION_DOT":0.00424465,"MEAN_MOTION_DDOT":0}]
